[{"OBJECT_NAME":"STARLINK-31472","OBJECT_ID":"2024-090A","EPOCH":"2026-03-09T07:39:02.982528","MEAN_MOTION":15.27562133,"ECCENTRICITY":0.00014297,"INCLINATION":43.005,"RA_OF_ASC_NODE":185.5732,"ARG_OF_PERICENTER":180.435,"MEAN_ANOMALY":179.65,"EPHEMERIS_TYPE":0,"CLASSIFICATION_TYPE":"U","NORAD_CAT_ID":59730,"ELEMENT_SET_NO":999,"REV_AT_EPOCH":10338,"BSTAR":1.4292855e-5,"MEAN_MOTION_DOT":1.31e-6,"MEAN_MOTION_DDOT":0},{"OBJECT_NAME":"TEVEL2-8","OBJECT_ID":"2025-052AF","EPOCH":"2026-03-09T16:02:08.542752","MEAN_MOTION":15.28392908,"ECCENTRICITY":0.0008031,"INCLINATION":97.4055,"RA_OF_ASC_NODE":324.2923,"ARG_OF_PERICENTER":124.9191,"MEAN_ANOMALY":235.2804,"EPHEMERIS_TYPE":0,"CLASSIFICATION_TYPE":"U","NORAD_CAT_ID":63239,"ELEMENT_SET_NO":999,"REV_AT_EPOCH":5480,"BSTAR":0.00069303947,"MEAN_MOTION_DOT":0.0001913,"MEAN_MOTION_DDOT":0}]
